NORAD_CAT_ID,OBJECT_NAME,OBJECT_TYPE,EPOCH,MEAN_MOTION,ECCENTRICITY,INCLINATION,RA_OF_ASC_NODE,ARG_OF_PERICENTER,MEAN_ANOMALY,BSTAR,MEAN_MOTION_DOT,MEAN_MOTION_DDOT,TLE_LINE0,TLE_LINE1,TLE_LINE2,SEMIMAJOR_AXIS,PERIOD,APOGEE,PERIGEE,DECAYED
52364.0,STARLINK-3820,PAYLOAD,2022-08-20 14:00:01,15.08834555,0.0002051,53.2137,252.0576,36.7282,234.0174,0.00075668,0.00011773,0.0,0 STARLINK-3820,1 52364U 22045AK  22232.58334491  .00011773  00000-0  75668-3 0  9995,2 52364  53.2137 252.0576 0002051  36.7282 234.0174 15.08834555  1305,6917.897,95.438,541.181,538.3430000000002,0.0
52364.0,STARLINK-3820,PAYLOAD,2022-08-20 16:00:00,15.08854271,0.0002021999999999,53.2138,251.6829,37.4244,326.2142,-0.0018375,-0.00029425,0.0,0 STARLINK-3820,1 52364U 22045AK  22232.66667824 -.00029425  00000-0 -18375-2 0  9999,2 52364  53.2138 251.6829 0002022  37.4244 326.2142 15.08854271 20112,6917.837,95.437,541.101,538.303,0.0
52364.0,STARLINK-3820,PAYLOAD,2022-08-20 22:00:00,15.0881796,0.0001884,53.214,250.5594,41.6179,240.731,0.0028665,0.00045601,0.0,0 STARLINK-3820,1 52364U 22045AK  22232.91667824  .00045601  00000-0  28665-2 0  9992,2 52364  53.2140 250.5594 0001884  41.6179 240.7310 15.08817960  1302,6917.948,95.439,541.116,538.509,0.0
52364.0,STARLINK-3820,PAYLOAD,2022-08-21 06:00:00,15.08854967,0.0002020999999999,53.2141,249.0642,40.3478,253.5869,-0.0014761,-0.00023714,0.0,0 STARLINK-3820,1 52364U 22045AK  22233.25001157 -.00023714  00000-0 -14761-2 0  9996,2 52364  53.2141 249.0642 0002021  40.3478 253.5869 15.08854967 20199,6917.835,95.437,541.0980000000002,538.302,0.0
52364.0,STARLINK-3820,PAYLOAD,2022-08-21 14:00:01,15.08858803,0.0002064,53.2138,247.5682,36.2895,269.2436,-0.0029445,-0.00046871,0.0,0 STARLINK-3820,1 52364U 22045AK  22233.58334491 -.00046871  00000-0 -29445-2 0  9996,2 52364  53.2138 247.5682 0002064  36.2895 269.2436 15.08858803  1305,6917.823,95.436,541.116,538.26,0.0
52364.0,STARLINK-3820,PAYLOAD,2022-08-21 22:00:00,15.0879775,0.0001844,53.2139,246.0702,40.4544,276.6877,0.0029927,0.00047608,0.0,0 STARLINK-3820,1 52364U 22045AK  22233.91667824  .00047608  00000-0  29927-2 0  9994,2 52364  53.2139 246.0702 0001844  40.4544 276.6877 15.08797750  1300,6918.01,95.44,541.15,538.599,0.0
52364.0,STARLINK-3820,PAYLOAD,2022-08-22 06:00:00,15.08835583,0.0001999,53.2139,244.5751,38.7594,289.9465,-0.0015179,-0.00024362,0.0,0 STARLINK-3820,1 52364U 22045AK  22234.25001157 -.00024362  00000-0 -15179-2 0  9991,2 52364  53.2139 244.5751 0001999  38.7594 289.9465 15.08835583 20345,6917.894,95.438,541.1419999999998,538.376,0.0
52364.0,STARLINK-3820,PAYLOAD,2022-08-22 12:00:00,15.08806688,0.0002089999999999,53.2137,243.4535,36.1755,211.2199,0.0025271,0.00040124,0.0,0 STARLINK-3820,1 52364U 22045AK  22234.50001157  .00040124  00000-0  25271-2 0  9995,2 52364  53.2137 243.4535 0002090  36.1755 211.2199 15.08806688  1306,6917.982,95.44,541.293,538.401,0.0
52364.0,STARLINK-3820,PAYLOAD,2022-08-22 22:00:00,15.0880339,0.0001862,53.2135,241.581,42.0117,309.8592,0.0029546999999999,0.00047003,0.0,0 STARLINK-3820,1 52364U 22045AK  22234.91667824  .00047003  00000-0  29547-2 0  9992,2 52364  53.2135 241.5810 0001862  42.0117 309.8592 15.08803390 20447,6917.9919999999975,95.44,541.145,538.569,0.0
52364.0,STARLINK-3820,PAYLOAD,2022-08-23 14:00:01,15.08840272,0.0002079,53.2129,238.5896,37.8869,337.1362,-0.0011017999999999,-0.00017781,0.0,0 STARLINK-3820,1 52364U 22045AK  22235.58334491 -.00017781  00000-0 -11018-2 0  9993,2 52364  53.2129 238.5896 0002079  37.8869 337.1362 15.08840272  1300,6917.88,95.438,541.183,538.306,0.0
52364.0,STARLINK-3820,PAYLOAD,2022-08-23 22:00:01,15.08809271,0.0001899999999999,53.2129,237.0917,43.9914,342.689,0.0027953,0.00044443,0.0,0 STARLINK-3820,1 52364U 22045AK  22235.91668981  .00044443  00000-0  27953-2 0  9992,2 52364  53.2129 237.0917 0001900  43.9914 342.6890 15.08809271  1300,6917.974,95.439,541.154,538.525,0.0
52364.0,STARLINK-3820,PAYLOAD,2022-08-24 14:00:01,15.08844994,0.0002126,53.2124,234.1002,39.9259,9.852,-0.0014202,-0.00022823,0.0,0 STARLINK-3820,1 52364U 22045AK  22236.58334491 -.00022823  00000-0 -14202-2 0  9995,2 52364  53.2124 234.1002 0002126  39.9259   9.8520 15.08844994  1309,6917.865,95.437,541.201,538.259,0.0
52364.0,STARLINK-3820,PAYLOAD,2022-08-24 22:00:00,15.08816374,0.0001981,53.2124,232.6023,45.8721,15.504,0.0025280999999999,0.00040151,0.0,0 STARLINK-3820,1 52364U 22045AK  22236.91667824  .00040151  00000-0  25281-2 0  9992,2 52364  53.2124 232.6023 0001981  45.8721  15.5040 15.08816374  1305,6917.953,95.439,541.188,538.447,0.0
52364.0,STARLINK-3820,PAYLOAD,2022-08-25 06:00:02,15.08843501,0.0002181,53.2123,231.1075,43.265,29.7582,-0.0013200999999999,-0.00021239,0.0,0 STARLINK-3820,1 52364U 22045AK  22237.25002315 -.00021239  00000-0 -13201-2 0  9995,2 52364  53.2123 231.1075 0002181  43.2650  29.7582 15.08843501 20807,6917.87,95.437,541.243,538.226,0.0
52364.0,STARLINK-3820,PAYLOAD,2022-08-25 14:00:01,15.08850952,0.0002201999999999,53.2122,229.6106,41.5611,42.985,-0.0016202,-0.0002599,0.0,0 STARLINK-3820,1 52364U 22045AK  22237.58334491 -.00025990  00000-0 -16202-2 0  9996,2 52364  53.2122 229.6106 0002202  41.5611  42.9850 15.08850952  1302,6917.847,95.437,541.235,538.189,0.0
52364.0,STARLINK-3820,PAYLOAD,2022-08-25 22:00:00,15.08824058,0.0002093,53.2123,228.1127,47.2196,48.9276,0.0021615,0.00034265,0.0,0 STARLINK-3820,1 52364U 22045AK  22237.91667824  .00034265  00000-0  21615-2 0  9999,2 52364  53.2123 228.1127 0002093  47.2196  48.9276 15.08824058  1305,6917.929,95.439,541.242,538.346,0.0
52364.0,STARLINK-3820,PAYLOAD,2022-08-26 14:00:01,15.08858361,0.0002303,53.2124,225.1208,43.0778,76.3163,-0.0017541,-0.00028112,0.0,0 STARLINK-3820,1 52364U 22045AK  22238.58335648 -.00028112  00000-0 -17541-2 0  9998,2 52364  53.2124 225.1208 0002303  43.0778  76.3163 15.08858361  1301,6917.824000000001,95.436,541.2819999999998,538.096,0.0
52364.0,STARLINK-3820,PAYLOAD,2022-08-26 22:00:00,15.08835276,0.0002218,53.2128,223.623,48.5127,82.4263,0.001889,0.000299,0.0,0 STARLINK-3820,1 52364U 22045AK  22238.91667824  .00029900  00000-0  18890-2 0  9991,2 52364  53.2128 223.6230 0002218  48.5127  82.4263 15.08835276  1305,6917.895,95.438,541.294,538.225,0.0
52364.0,STARLINK-3820,PAYLOAD,2022-08-27 14:00:01,15.08869885,0.0002394,53.2131,220.6311,44.7256,109.4196,-0.0018437999999999,-0.00029538,0.0,0 STARLINK-3820,1 52364U 22045AK  22239.58334491 -.00029538  00000-0 -18438-2 0  9993,2 52364  53.2131 220.6311 0002394  44.7256 109.4196 15.08869885  1300,6917.7890000000025,95.436,541.31,537.998,0.0
52364.0,STARLINK-3820,PAYLOAD,2022-08-27 22:00:00,15.08856008,0.0002274,53.2136,219.1334,49.0109,116.7526,-0.0011545,-0.00018624,0.0,0 STARLINK-3820,1 52364U 22045AK  22239.91667824 -.00018624  00000-0 -11545-2 0  9995,2 52364  53.2136 219.1334 0002274  49.0109 116.7526 15.08856008 21207,6917.831,95.437,541.27,538.123,0.0
52364.0,STARLINK-3820,PAYLOAD,2022-08-28 14:00:01,15.08855666,0.0002383,53.2138,216.1414,44.8677,144.088,-0.0019643,-0.00031429,0.0,0 STARLINK-3820,1 52364U 22045AK  22240.58334491 -.00031429  00000-0 -19643-2 0  9996,2 52364  53.2138 216.1414 0002383  44.8677 144.0880 15.08855666  1304,6917.833000000001,95.437,541.346,538.049,0.0
52364.0,STARLINK-3820,PAYLOAD,2022-08-28 22:00:00,15.08837917,0.0002306,53.2143,214.644,49.8755,150.6787,0.0014243,0.00022451,0.0,0 STARLINK-3820,1 52364U 22045AK  22240.91667824  .00022451  00000-0  14243-2 0  9996,2 52364  53.2143 214.6440 0002306  49.8755 150.6787 15.08837917  1307,6917.887,95.438,541.347,538.156,0.0
52364.0,STARLINK-3820,PAYLOAD,2022-08-29 14:00:01,15.08848465,0.0002343999999999,53.2144,211.6519,45.1436,178.6118,-0.0032453,-0.00051582,0.0,0 STARLINK-3820,1 52364U 22045AK  22241.58334491 -.00051582  00000-0 -32453-2 0  9993,2 52364  53.2144 211.6519 0002344  45.1436 178.6118 15.08848465  1307,6917.855,95.437,541.341,538.0980000000002,0.0
52364.0,STARLINK-3820,PAYLOAD,2022-08-29 16:00:00,15.08822737,0.0002275999999999,53.2146,211.2774,46.0445,270.6164,-0.00037097,-6.185e-05,0.0,0 STARLINK-3820,1 52364U 22045AK  22241.66667824 -.00006185  00000-0 -37097-3 0  9990,2 52364  53.2146 211.2774 0002276  46.0445 270.6164 15.08822737 21469,6917.933000000001,95.439,541.373,538.224,0.0
52364.0,STARLINK-3820,PAYLOAD,2022-08-29 22:00:00,15.08822964,0.0002241,53.2147,210.1548,49.755,185.5824,0.0011359999999999,0.00017829,0.0,0 STARLINK-3820,1 52364U 22045AK  22241.91667824  .00017829  00000-0  11360-2 0  9997,2 52364  53.2147 210.1548 0002241  49.7550 185.5824 15.08822964  1306,6917.932,95.439,541.3480000000002,538.247,0.0
52364.0,STARLINK-3820,PAYLOAD,2022-08-30 14:00:01,15.08848712,0.0002336999999999,53.2145,207.1627,47.0027,211.4936,-0.0020225,-0.00032341,0.0,0 STARLINK-3820,1 52364U 22045AK  22242.58334491 -.00032341  00000-0 -20225-2 0  9990,2 52364  53.2145 207.1627 0002337  47.0027 211.4936 15.08848712 21601,6917.854,95.437,541.335,538.102,0.0
52364.0,STARLINK-3820,PAYLOAD,2022-08-30 22:00:00,15.0883954,0.0002261,53.2147,205.6658,52.0367,218.0488,0.00086728,0.00013542,0.0,0 STARLINK-3820,1 52364U 22045AK  22242.91667824  .00013542  00000-0  86728-3 0  9997,2 52364  53.2147 205.6658 0002261  52.0367 218.0488 15.08839540  1308,6917.882,95.438,541.311,538.183,0.0
52364.0,STARLINK-3820,PAYLOAD,2022-08-31 14:00:01,15.08862677,0.0002327,53.2142,202.6736,49.3006,243.9756,-0.0024741999999999,-0.00039476,0.0,0 STARLINK-3820,1 52364U 22045AK  22243.58334491 -.00039476  00000-0 -24742-2 0  9995,2 52364  53.2142 202.6736 0002327  49.3006 243.9756 15.08862677  1301,6917.811,95.436,541.286,538.066,0.0
52364.0,STARLINK-3820,PAYLOAD,2022-08-31 22:00:00,15.08836738,0.0002467,53.2176,201.1725,47.2049,257.659,6.4539e-05,7.39e-06,0.0,0 STARLINK-3820,1 52364U 22045AK  22243.91667824  .00000739  00000-0  64539-4 0  9999,2 52364  53.2176 201.1725 0002467  47.2049 257.6590 15.08836738 21803,6917.89,95.438,541.462,538.049,0.0
